{"type": "FeatureCollection", "features": [ {"type": "Feature", "properties": {"norad_id": 30295, "name": "FENGYUN 1C DEB", "group": "fengyun-1c-debris", "lat": -80.86472593130333, "lon": 129.76792648534453, "alt_km": 873.3009734721718, "timestamp": "2025-12-22T04:03:39.444400+00:00", "meta": {"OBJECT_NAME": "FENGYUN 1C DEB", "OBJECT_ID": "1999-025ZG", "EPOCH": "2025-12-21T18:38:47.696352", "MEAN_MOTION": 14.25050898, "ECCENTRICITY": 0.0094298, "INCLINATION": 98.5075, "RA_OF_ASC_NODE": 17.9502, "ARG_OF_PERICENTER": 56.3562, "MEAN_ANOMALY": 359.6287, "EPHEMERIS_TYPE": 0, "CLASSIFICATION_TYPE": "U", "NORAD_CAT_ID": 30295, "ELEMENT_SET_NO": 999, "REV_AT_EPOCH": 98305, "BSTAR": 0.00013275, "MEAN_MOTION_DOT": 2.84e-06, "MEAN_MOTION_DDOT": 0}, "tle": {"line1": "1 30295U 99025ZG  25355.77694093  .00000284  00000+0  13275-3 0  9993", "line2": "2 30295  98.5075  17.9502 0094298  56.3562 359.6287 14.25050898983055"}}, "geometry": {"type": "Point", "coordinates": [129.76792648534453, -80.86472593130333]}}, {"type": "Feature", "properties": {"norad_id": 30297, "name": "FENGYUN 1C DEB", "group": "fengyun-1c-debris", "lat": 76.48226403155807, "lon": 167.9242712248366, "alt_km": 543.7556845001409, "timestamp": "2025-12-22T04:03:39.444410+00:00", "meta": {"OBJECT_NAME": "FENGYUN 1C DEB", "OBJECT_ID": "1999-025ZJ", "EPOCH": "2025-12-20T19:47:22.953408", "MEAN_MOTION": 14.21876156, "ECCENTRICITY": 0.03797851, "INCLINATION": 98.8127, "RA_OF_ASC_NODE": 306.3893, "ARG_OF_PERICENTER": 92.3015, "MEAN_ANOMALY": 328.0973, "EPHEMERIS_TYPE": 0, "CLASSIFICATION_TYPE": "U", "NORAD_CAT_ID": 30297, "ELEMENT_SET_NO": 999, "REV_AT_EPOCH": 95267, "BSTAR": 0.00085555178, "MEAN_MOTION_DOT": 3.907e-05, "MEAN_MOTION_DDOT": 0}, "tle": {"line1": "1 30297U 99025ZJ  25354.82457122  .00003907  00000+0  85555-3 0  9995", "line2": "2 30297  98.8127 306.3893 0379785  92.3015 328.0973 14.21876156952671"}}, "geometry": {"type": "Point", "coordinates": [167.9242712248366, 76.48226403155807]}}, {"type": "Feature", "properties": {"norad_id": 30298, "name": "FENGYUN 1C DEB", "group": "fengyun-1c-debris", "lat": 76.77231754297753, "lon": -50.3272840587978, "alt_km": 783.7598209543721, "timestamp": "2025-12-22T04:03:39.444420+00:00", "meta": {"OBJECT_NAME": "FENGYUN 1C DEB", "OBJECT_ID": "1999-025ZK", "EPOCH": "2025-12-21T19:43:11.885376", "MEAN_MOTION": 14.20000256, "ECCENTRICITY": 0.0047655, "INCLINATION": 99.0016, "RA_OF_ASC_NODE": 86.9147, "ARG_OF_PERICENTER": 102.6579, "MEAN_ANOMALY": 21.4304, "EPHEMERIS_TYPE": 0, "CLASSIFICATION_TYPE": "U", "NORAD_CAT_ID": 30298, "ELEMENT_SET_NO": 999, "REV_AT_EPOCH": 96963, "BSTAR": 0.0013831, "MEAN_MOTION_DOT": 2.931e-05, "MEAN_MOTION_DDOT": 0}, "tle": {"line1": "1 30298U 99025ZK  25355.82166534  .00002931  00000+0  13831-2 0  9994", "line2": "2 30298  99.0016  86.9147 0047655 102.6579  21.4304 14.20000256969638"}}, "geometry": {"type": "Point", "coordinates": [-50.3272840587978, 76.77231754297753]}}, {"type": "Feature", "properties": {"norad_id": 30299, "name": "FENGYUN 1C DEB", "group": "fengyun-1c-debris", "lat": -79.37951642630568, "lon": -170.19606509678184, "alt_km": 856.3701399211377, "timestamp": "2025-12-22T04:03:39.444430+00:00", "meta": {"OBJECT_NAME": "FENGYUN 1C DEB", "OBJECT_ID": "1999-025ZL", "EPOCH": "2025-12-21T11:30:23.876928", "MEAN_MOTION": 14.07788266, "ECCENTRICITY": 0.0103097, "INCLINATION": 99.0935, "RA_OF_ASC_NODE": 67.7711, "ARG_OF_PERICENTER": 343.1381, "MEAN_ANOMALY": 28.671, "EPHEMERIS_TYPE": 0, "CLASSIFICATION_TYPE": "U", "NORAD_CAT_ID": 30299, "ELEMENT_SET_NO": 999, "REV_AT_EPOCH": 96413, "BSTAR": 0.00116659, "MEAN_MOTION_DOT": 2.029e-05, "MEAN_MOTION_DDOT": 0}, "tle": {"line1": "1 30299U 99025ZL  25355.47944302  .00002029  00000+0  11666-2 0  9995", "line2": "2 30299  99.0935  67.7711 0103097 343.1381  28.6710 14.07788266964138"}}, "geometry": {"type": "Point", "coordinates": [-170.19606509678184, -79.37951642630568]}}, {"type": "Feature", "properties": {"norad_id": 30300, "name": "FENGYUN 1C DEB", "group": "fengyun-1c-debris", "lat": 6.908763884697547, "lon": 64.7146253376736, "alt_km": 813.3282772306466, "timestamp": "2025-12-22T04:03:39.444441+00:00", "meta": {"OBJECT_NAME": "FENGYUN 1C DEB", "OBJECT_ID": "1999-025ZM", "EPOCH": "2025-12-19T03:48:05.188896", "MEAN_MOTION": 14.26899681, "ECCENTRICITY": 0.00756002, "INCLINATION": 99.0404, "RA_OF_ASC_NODE": 62.7103, "ARG_OF_PERICENTER": 275.4697, "MEAN_ANOMALY": 113.2793, "EPHEMERIS_TYPE": 0, "CLASSIFICATION_TYPE": "U", "NORAD_CAT_ID": 30300, "ELEMENT_SET_NO": 999, "REV_AT_EPOCH": 97076, "BSTAR": 0.0016293339, "MEAN_MOTION_DOT": 4.032e-05, "MEAN_MOTION_DDOT": 0}, "tle": {"line1": "1 30300U 99025ZM  25353.15839339  .00004032  00000+0  16293-2 0  9991", "line2": "2 30300  99.0404  62.7103 0075600 275.4697 113.2793 14.26899681970760"}}, "geometry": {"type": "Point", "coordinates": [64.7146253376736, 6.908763884697547]}}, {"type": "Feature", "properties": {"norad_id": 30301, "name": "FENGYUN 1C DEB", "group": "fengyun-1c-debris", "lat": -23.811296147978748, "lon": 151.41760584572145, "alt_km": 707.4626638060163, "timestamp": "2025-12-22T04:03:39.444451+00:00", "meta": {"OBJECT_NAME": "FENGYUN 1C DEB", "OBJECT_ID": "1999-025ZN", "EPOCH": "2025-12-21T16:40:32.217312", "MEAN_MOTION": 14.53255766, "ECCENTRICITY": 0.0069224, "INCLINATION": 98.6354, "RA_OF_ASC_NODE": 147.0838, "ARG_OF_PERICENTER": 262.4289, "MEAN_ANOMALY": 112.3793, "EPHEMERIS_TYPE": 0, "CLASSIFICATION_TYPE": "U", "NORAD_CAT_ID": 30301, "ELEMENT_SET_NO": 999, "REV_AT_EPOCH": 97347, "BSTAR": 0.0035208, "MEAN_MOTION_DOT": 0.00015055, "MEAN_MOTION_DDOT": 0}, "tle": {"line1": "1 30301U 99025ZN  25355.69481733  .00015055  00000+0  35208-2 0  9998", "line2": "2 30301  98.6354 147.0838 0069224 262.4289 112.3793 14.53255766973471"}}, "geometry": {"type": "Point", "coordinates": [151.41760584572145, -23.811296147978748]}}, {"type": "Feature", "properties": {"norad_id": 30302, "name": "FENGYUN 1C DEB", "group": "fengyun-1c-debris", "lat": 23.0926376387409, "lon": 87.12872994949073, "alt_km": 817.3518170032858, "timestamp": "2025-12-22T04:03:39.444461+00:00", "meta": {"OBJECT_NAME": "FENGYUN 1C DEB", "OBJECT_ID": "1999-025ZP", "EPOCH": "2025-12-21T00:08:21.553728", "MEAN_MOTION": 14.12863052, "ECCENTRICITY": 0.01055559, "INCLINATION": 98.5542, "RA_OF_ASC_NODE": 262.3375, "ARG_OF_PERICENTER": 93.8721, "MEAN_ANOMALY": 267.4528, "EPHEMERIS_TYPE": 0, "CLASSIFICATION_TYPE": "U", "NORAD_CAT_ID": 30302, "ELEMENT_SET_NO": 999, "REV_AT_EPOCH": 96160, "BSTAR": 0.0013252255, "MEAN_MOTION_DOT": 2.559e-05, "MEAN_MOTION_DDOT": 0}, "tle": {"line1": "1 30302U 99025ZP  25355.00580502  .00002559  00000+0  13252-2 0  9998", "line2": "2 30302  98.5542 262.3375 0105555  93.8721 267.4528 14.12863052961600"}}, "geometry": {"type": "Point", "coordinates": [87.12872994949073, 23.0926376387409]}}, {"type": "Feature", "properties": {"norad_id": 30303, "name": "FENGYUN 1C DEB", "group": "fengyun-1c-debris", "lat": -1.3877100752166318, "lon": -106.47438683185133, "alt_km": 792.8245082199282, "timestamp": "2025-12-22T04:03:39.444471+00:00", "meta": {"OBJECT_NAME": "FENGYUN 1C DEB", "OBJECT_ID": "1999-025ZQ", "EPOCH": "2025-12-19T04:28:26.075424", "MEAN_MOTION": 14.25895485, "ECCENTRICITY": 0.00769653, "INCLINATION": 99.0208, "RA_OF_ASC_NODE": 70.677, "ARG_OF_PERICENTER": 263.8432, "MEAN_ANOMALY": 95.3974, "EPHEMERIS_TYPE": 0, "CLASSIFICATION_TYPE": "U", "NORAD_CAT_ID": 30303, "ELEMENT_SET_NO": 999, "REV_AT_EPOCH": 97127, "BSTAR": 0.0017896087, "MEAN_MOTION_DOT": 4.351e-05, "MEAN_MOTION_DDOT": 0}, "tle": {"line1": "1 30303U 99025ZQ  25353.18641291  .00004351  00000+0  17896-2 0  9999", "line2": "2 30303  99.0208  70.6770 0076965 263.8432  95.3974 14.25895485971271"}}, "geometry": {"type": "Point", "coordinates": [-106.47438683185133, -1.3877100752166318]}}, {"type": "Feature", "properties": {"norad_id": 30304, "name": "FENGYUN 1C DEB", "group": "fengyun-1c-debris", "lat": -11.882594567204636, "lon": 70.6403747489563, "alt_km": 800.7687670683308, "timestamp": "2025-12-22T04:03:39.444481+00:00", "meta": {"OBJECT_NAME": "FENGYUN 1C DEB", "OBJECT_ID": "1999-025ZR", "EPOCH": "2025-12-18T10:12:26.700192", "MEAN_MOTION": 14.15523113, "ECCENTRICITY": 0.00734007, "INCLINATION": 99.0328, "RA_OF_ASC_NODE": 64.9301, "ARG_OF_PERICENTER": 32.7527, "MEAN_ANOMALY": 327.8165, "EPHEMERIS_TYPE": 0, "CLASSIFICATION_TYPE": "U", "NORAD_CAT_ID": 30304, "ELEMENT_SET_NO": 999, "REV_AT_EPOCH": 96899, "BSTAR": 0.0011981926, "MEAN_MOTION_DOT": 2.359e-05, "MEAN_MOTION_DDOT": 0}, "tle": {"line1": "1 30304U 99025ZR  25352.42530903  .00002359  00000+0  11982-2 0  9999", "line2": "2 30304  99.0328  64.9301 0073400  32.7527 327.8165 14.15523113968995"}}, "geometry": {"type": "Point", "coordinates": [70.6403747489563, -11.882594567204636]}}, {"type": "Feature", "properties": {"norad_id": 30305, "name": "FENGYUN 1C DEB", "group": "fengyun-1c-debris", "lat": -0.891159024107504, "lon": -64.83929740309999, "alt_km": 989.3498622332772, "timestamp": "2025-12-22T04:03:39.444492+00:00", "meta": {"OBJECT_NAME": "FENGYUN 1C DEB", "OBJECT_ID": "1999-025ZS", "EPOCH": "2025-12-21T14:47:33.866880", "MEAN_MOTION": 13.6023503, "ECCENTRICITY": 0.0265847, "INCLINATION": 98.5886, "RA_OF_ASC_NODE": 294.54, "ARG_OF_PERICENTER": 77.9156, "MEAN_ANOMALY": 98.5196, "EPHEMERIS_TYPE": 0, "CLASSIFICATION_TYPE": "U", "NORAD_CAT_ID": 30305, "ELEMENT_SET_NO": 999, "REV_AT_EPOCH": 93894, "BSTAR": 0.00029388, "MEAN_MOTION_DOT": 2.44e-06, "MEAN_MOTION_DDOT": 0}, "tle": {"line1": "1 30305U 99025ZS  25355.61636420  .00000244  00000+0  29388-3 0  9996", "line2": "2 30305  98.5886 294.5400 0265847  77.9156  98.5196 13.60235030938942"}}, "geometry": {"type": "Point", "coordinates": [-64.83929740309999, -0.891159024107504]}}]}